*******************************************************************************
Ephemeris / WWW_USER Thu May 23 08:24:56 2024 Pasadena, USA      / Horizons    
*******************************************************************************
Target body name: (2019 AS11)                     {source: JPL#3}
Center body name: Earth (399)                     {source: DE441}
Center-site name: Gemini South Obs., Cerro Pachon
*******************************************************************************
Start time      : A.D. 2018-Oct-02 22:53:00.0000 UT      
Stop  time      : A.D. 2018-Oct-03 10:10:00.0000 UT      
Step-size       : 1 minutes
*******************************************************************************
Target pole/equ : undefined
Target radii    : undefined                                                    
Center geodetic : 289.2634, -30.2406227, 2.71233  {E-lon(deg),Lat(deg),Alt(km)}
Center cylindric: 289.2634,5517.21435,-3194.81213 {E-lon(deg),Dxy(km),Dz(km)}
Center pole/equ : ITRF93                          {East-longitude positive}
Center radii    : 6378.137, 6378.137, 6356.752 km {Equator_a, b, pole_c}       
Target primary  : Sun
Vis. interferer : MOON (R_eq= 1737.400) km        {source: DE441}
Rel. light bend : Sun                             {source: DE441}
Rel. lght bnd GM: 1.3271E+11 km^3/s^2                                          
Small-body perts: Yes                             {source: SB441-N16}
Atmos refraction: NO (AIRLESS)
RA format       : HMS
Time format     : CAL 
Calendar mode   : Mixed Julian/Gregorian
RTS-only print  : NO       
EOP file        : eop.240522.p240815                                           
EOP coverage    : DATA-BASED 1962-JAN-20 TO 2024-MAY-22. PREDICTS-> 2024-AUG-14
Units conversion: 1 au= 149597870.700 km, c= 299792.458 km/s, 1 day= 86400.0 s 
Table cut-offs 1: Elevation (-90.0deg=NO ),Airmass (>38.000=NO), Daylight (YES)
Table cut-offs 2: Solar elongation (  0.0,180.0=NO ),Local Hour Angle( 0.0=NO )
Table cut-offs 3: RA/DEC angular rate (     0.0=NO )                           
*******************************************************************************
Initial IAU76/J2000 heliocentric ecliptic osculating elements (au, days, deg.):
  EPOCH=  2458497.5 ! 2019-Jan-14.00 (TDB)         Residual RMS= .087899       
   EC= .1148313279028816   QR= .9946661968961306   TP= 2458526.093433633       
   OM= 299.8828960483019   W=  203.050931799211    IN= 7.281527766683049       
  Equivalent ICRF heliocentric cartesian coordinates (au, au/d):
   X=-3.982431103506237E-01  Y= 8.438985356712057E-01  Z= 3.820551439764541E-01
  VX=-1.601846206933958E-02 VY=-6.309373484980013E-03 VZ=-5.215303828559489E-03
Asteroid physical parameters (km, seconds, rotational period in hours):        
   GM= n.a.                RAD= n.a.               ROTPER= n.a.                
   H= 26.8                 G= .150                 B-V= n.a.                   
                           ALBEDO= n.a.            STYP= n.a.                  
*******************************************************************************
 Date__(UT)__HR:MN     R.A._________(ICRF)_________DEC
******************************************************
$$SOE
 2018-Oct-03 00:56     04 15 43.651239 +48 36 02.58761
 2018-Oct-03 00:57     04 15 43.762526 +48 36 03.80113
 2018-Oct-03 00:58     04 15 43.873771 +48 36 05.01477
 2018-Oct-03 00:59     04 15 43.984974 +48 36 06.22852
 2018-Oct-03 01:00     04 15 44.096135 +48 36 07.44237
 2018-Oct-03 01:01     04 15 44.207254 +48 36 08.65633
 2018-Oct-03 01:02     04 15 44.318330 +48 36 09.87039
 2018-Oct-03 01:03     04 15 44.429364 +48 36 11.08455
 2018-Oct-03 01:04     04 15 44.540356 +48 36 12.29882
 2018-Oct-03 01:05     04 15 44.651305 +48 36 13.51319
 2018-Oct-03 01:06     04 15 44.762211 +48 36 14.72765
 2018-Oct-03 01:07     04 15 44.873075 +48 36 15.94221
 2018-Oct-03 01:08     04 15 44.983896 +48 36 17.15687
 2018-Oct-03 01:09     04 15 45.094675 +48 36 18.37163
 2018-Oct-03 01:10     04 15 45.205411 +48 36 19.58647
 2018-Oct-03 01:11     04 15 45.316104 +48 36 20.80141
 2018-Oct-03 01:12     04 15 45.426754 +48 36 22.01644
 2018-Oct-03 01:13     04 15 45.537361 +48 36 23.23155
 2018-Oct-03 01:14     04 15 45.647925 +48 36 24.44676
 2018-Oct-03 01:15     04 15 45.758446 +48 36 25.66205
 2018-Oct-03 01:16     04 15 45.868924 +48 36 26.87742
 2018-Oct-03 01:17     04 15 45.979359 +48 36 28.09288
 2018-Oct-03 01:18     04 15 46.089751 +48 36 29.30842
 2018-Oct-03 01:19     04 15 46.200100 +48 36 30.52404
 2018-Oct-03 01:20     04 15 46.310405 +48 36 31.73974
 2018-Oct-03 01:21     04 15 46.420667 +48 36 32.95552
 2018-Oct-03 01:22     04 15 46.530885 +48 36 34.17137
 2018-Oct-03 01:23     04 15 46.641060 +48 36 35.38730
 2018-Oct-03 01:24     04 15 46.751192 +48 36 36.60330
 2018-Oct-03 01:25     04 15 46.861280 +48 36 37.81937
 2018-Oct-03 01:26     04 15 46.971324 +48 36 39.03551
 2018-Oct-03 01:27     04 15 47.081325 +48 36 40.25173
 2018-Oct-03 01:28     04 15 47.191283 +48 36 41.46801
 2018-Oct-03 01:29     04 15 47.301196 +48 36 42.68435
 2018-Oct-03 01:30     04 15 47.411066 +48 36 43.90076
 2018-Oct-03 01:31     04 15 47.520892 +48 36 45.11724
 2018-Oct-03 01:32     04 15 47.630675 +48 36 46.33378
 2018-Oct-03 01:33     04 15 47.740413 +48 36 47.55037
 2018-Oct-03 01:34     04 15 47.850108 +48 36 48.76703
 2018-Oct-03 01:35     04 15 47.959758 +48 36 49.98374
 2018-Oct-03 01:36     04 15 48.069365 +48 36 51.20051
 2018-Oct-03 01:37     04 15 48.178928 +48 36 52.41734
 2018-Oct-03 01:38     04 15 48.288447 +48 36 53.63421
 2018-Oct-03 01:39     04 15 48.397922 +48 36 54.85114
 2018-Oct-03 01:40     04 15 48.507352 +48 36 56.06812
 2018-Oct-03 01:41     04 15 48.616739 +48 36 57.28515
 2018-Oct-03 01:42     04 15 48.726081 +48 36 58.50223
 2018-Oct-03 01:43     04 15 48.835380 +48 36 59.71935
 2018-Oct-03 01:44     04 15 48.944634 +48 37 00.93652
 2018-Oct-03 01:45     04 15 49.053844 +48 37 02.15373
 2018-Oct-03 01:46     04 15 49.163009 +48 37 03.37098
 2018-Oct-03 01:47     04 15 49.272131 +48 37 04.58827
 2018-Oct-03 01:48     04 15 49.381208 +48 37 05.80560
 2018-Oct-03 01:49     04 15 49.490241 +48 37 07.02297
 2018-Oct-03 01:50     04 15 49.599229 +48 37 08.24038
 2018-Oct-03 01:51     04 15 49.708173 +48 37 09.45782
 2018-Oct-03 01:52     04 15 49.817073 +48 37 10.67529
 2018-Oct-03 01:53     04 15 49.925928 +48 37 11.89279
 2018-Oct-03 01:54     04 15 50.034739 +48 37 13.11033
 2018-Oct-03 01:55     04 15 50.143506 +48 37 14.32789
 2018-Oct-03 01:56     04 15 50.252228 +48 37 15.54548
 2018-Oct-03 01:57     04 15 50.360905 +48 37 16.76310
 2018-Oct-03 01:58     04 15 50.469538 +48 37 17.98074
 2018-Oct-03 01:59     04 15 50.578127 +48 37 19.19840
 2018-Oct-03 02:00     04 15 50.686671 +48 37 20.41608
 2018-Oct-03 02:01     04 15 50.795170 +48 37 21.63379
 2018-Oct-03 02:02     04 15 50.903625 +48 37 22.85151
 2018-Oct-03 02:03     04 15 51.012035 +48 37 24.06925
 2018-Oct-03 02:04     04 15 51.120401 +48 37 25.28700
 2018-Oct-03 02:05     04 15 51.228723 +48 37 26.50477
 2018-Oct-03 02:06     04 15 51.336999 +48 37 27.72256
 2018-Oct-03 02:07     04 15 51.445231 +48 37 28.94035
 2018-Oct-03 02:08     04 15 51.553419 +48 37 30.15815
 2018-Oct-03 02:09     04 15 51.661562 +48 37 31.37596
 2018-Oct-03 02:10     04 15 51.769660 +48 37 32.59378
 2018-Oct-03 02:11     04 15 51.877713 +48 37 33.81161
 2018-Oct-03 02:12     04 15 51.985722 +48 37 35.02943
 2018-Oct-03 02:13     04 15 52.093687 +48 37 36.24726
 2018-Oct-03 02:14     04 15 52.201606 +48 37 37.46510
 2018-Oct-03 02:15     04 15 52.309481 +48 37 38.68293
 2018-Oct-03 02:16     04 15 52.417312 +48 37 39.90075
 2018-Oct-03 02:17     04 15 52.525098 +48 37 41.11858
 2018-Oct-03 02:18     04 15 52.632839 +48 37 42.33640
 2018-Oct-03 02:19     04 15 52.740536 +48 37 43.55421
 2018-Oct-03 02:20     04 15 52.848187 +48 37 44.77202
 2018-Oct-03 02:21     04 15 52.955795 +48 37 45.98982
 2018-Oct-03 02:22     04 15 53.063358 +48 37 47.20761
 2018-Oct-03 02:23     04 15 53.170876 +48 37 48.42538
 2018-Oct-03 02:24     04 15 53.278349 +48 37 49.64314
 2018-Oct-03 02:25     04 15 53.385778 +48 37 50.86089
 2018-Oct-03 02:26     04 15 53.493162 +48 37 52.07862
 2018-Oct-03 02:27     04 15 53.600502 +48 37 53.29633
 2018-Oct-03 02:28     04 15 53.707797 +48 37 54.51402
 2018-Oct-03 02:29     04 15 53.815048 +48 37 55.73169
 2018-Oct-03 02:30     04 15 53.922254 +48 37 56.94934
 2018-Oct-03 02:31     04 15 54.029415 +48 37 58.16696
 2018-Oct-03 02:32     04 15 54.136532 +48 37 59.38456
 2018-Oct-03 02:33     04 15 54.243605 +48 38 00.60214
 2018-Oct-03 02:34     04 15 54.350633 +48 38 01.81968
 2018-Oct-03 02:35     04 15 54.457616 +48 38 03.03720
 2018-Oct-03 02:36     04 15 54.564555 +48 38 04.25468
 2018-Oct-03 02:37     04 15 54.671450 +48 38 05.47213
 2018-Oct-03 02:38     04 15 54.778300 +48 38 06.68955
 2018-Oct-03 02:39     04 15 54.885106 +48 38 07.90693
 2018-Oct-03 02:40     04 15 54.991867 +48 38 09.12428
 2018-Oct-03 02:41     04 15 55.098584 +48 38 10.34158
 2018-Oct-03 02:42     04 15 55.205256 +48 38 11.55885
 2018-Oct-03 02:43     04 15 55.311885 +48 38 12.77607
 2018-Oct-03 02:44     04 15 55.418469 +48 38 13.99326
 2018-Oct-03 02:45     04 15 55.525008 +48 38 15.21040
 2018-Oct-03 02:46     04 15 55.631504 +48 38 16.42749
 2018-Oct-03 02:47     04 15 55.737955 +48 38 17.64454
 2018-Oct-03 02:48     04 15 55.844362 +48 38 18.86153
 2018-Oct-03 02:49     04 15 55.950725 +48 38 20.07848
 2018-Oct-03 02:50     04 15 56.057044 +48 38 21.29538
 2018-Oct-03 02:51     04 15 56.163318 +48 38 22.51222
 2018-Oct-03 02:52     04 15 56.269549 +48 38 23.72901
 2018-Oct-03 02:53     04 15 56.375735 +48 38 24.94575
 2018-Oct-03 02:54     04 15 56.481878 +48 38 26.16242
 2018-Oct-03 02:55     04 15 56.587976 +48 38 27.37904
 2018-Oct-03 02:56     04 15 56.694031 +48 38 28.59560
 2018-Oct-03 02:57     04 15 56.800041 +48 38 29.81209
 2018-Oct-03 02:58     04 15 56.906008 +48 38 31.02853
